{"type":"FeatureCollection","features":[{"type":"Feature","properties":{"code":"Med","name_draft":"Mediterranean (Med)","name_2026b":"EIS_MedSea","ice_sheet":"European Ice Sheet Complex","approximate":false,"n_cells":115,"source":"HadCM3 dye input cells (dye_regions_norm.nc), Endres et al. 2026b"},"geometry":{"type":"Polygon","coordinates":[[[6.875,36.25],[0.625,36.25],[0.625,38.75],[1.875,38.75],[1.875,41.25],[4.375,41.25],[4.375,42.5],[6.875,42.5],[6.875,43.75],[9.375,43.75],[9.375,38.75],[10.625,38.75],[10.625,41.25],[14.375,41.25],[14.375,40.0],[15.625,40.0],[15.625,38.75],[16.875,38.75],[16.875,40.0],[20.625,40.0],[20.625,38.75],[21.875,38.75],[21.875,37.5],[23.125,37.5],[23.125,36.25],[35.625,36.25],[35.625,32.5],[34.375,32.5],[34.375,31.25],[25.625,31.25],[25.625,32.5],[20.625,32.5],[20.625,31.25],[16.875,31.25],[16.875,32.5],[15.625,32.5],[15.625,35.0],[14.375,35.0],[14.375,36.25],[15.625,36.25],[15.625,37.5],[6.875,37.5],[6.875,36.25]]]}},{"type":"Feature","properties":{"code":"Bri","name_draft":"British Isles (Bri)","name_2026b":"EIS_BayOfBiscay","ice_sheet":"European Ice Sheet Complex (British\u2013Irish, Fennoscandian)","approximate":false,"n_cells":45,"source":"HadCM3 dye input cells (dye_regions_norm.nc), Endres et al. 2026b"},"geometry":{"type":"MultiPolygon","coordinates":[[[[-13.125,46.25],[-13.125,62.5],[-9.375,62.5],[-9.375,61.25],[-6.875,61.25],[-6.875,58.75],[-9.375,58.75],[-9.375,55.0],[-10.625,55.0],[-10.625,53.75],[-11.875,53.75],[-11.875,50.0],[-10.625,50.0],[-10.625,48.75],[-6.875,48.75],[-6.875,47.5],[-5.625,47.5],[-5.625,46.25],[-13.125,46.25]]],[[[-6.875,62.5],[-0.625,62.5],[-0.625,61.25],[-6.875,61.25],[-6.875,62.5]]]]}},{"type":"Feature","properties":{"code":"Fen","name_draft":"Fennoscandian (Fen)","name_2026b":"EIS_NorwegianSea","ice_sheet":"European Ice Sheet Complex (Fennoscandian, Barents)","approximate":false,"n_cells":97,"source":"HadCM3 dye input cells (dye_regions_norm.nc), Endres et al. 2026b"},"geometry":{"type":"Polygon","coordinates":[[[0.625,61.25],[0.625,67.5],[3.125,67.5],[3.125,80.0],[9.375,80.0],[9.375,76.25],[13.125,76.25],[13.125,73.75],[16.875,73.75],[16.875,68.75],[9.375,68.75],[9.375,66.25],[5.625,66.25],[5.625,63.75],[1.875,63.75],[1.875,61.25],[0.625,61.25]]]}},{"type":"Feature","properties":{"code":"EurArc","name_draft":"Eurasian Arctic (EurArc)","name_2026b":"EIS_Arctic","ice_sheet":"European Ice Sheet Complex (Svalbard\u2013Barents\u2013Kara)","approximate":false,"n_cells":326,"source":"HadCM3 dye input cells (dye_regions_norm.nc), Endres et al. 2026b"},"geometry":{"type":"Polygon","coordinates":[[[9.375,81.25],[9.375,86.25],[114.375,86.25],[114.375,78.75],[110.625,78.75],[110.625,77.5],[109.375,77.5],[109.375,78.75],[103.125,78.75],[103.125,80.0],[99.375,80.0],[99.375,81.25],[89.375,81.25],[89.375,80.0],[84.375,80.0],[84.375,81.25],[73.125,81.25],[73.125,83.75],[69.375,83.75],[69.375,81.25],[65.625,81.25],[65.625,83.75],[46.875,83.75],[46.875,81.25],[9.375,81.25]]]}},{"type":"Feature","properties":{"code":"AmeArc","name_draft":"American Arctic (AmeArc)","name_2026b":"LAU_Arctic","ice_sheet":"Laurentide Ice Sheet","approximate":false,"n_cells":355,"source":"HadCM3 dye input cells (dye_regions_norm.nc), Endres et al. 2026b"},"geometry":{"type":"Polygon","coordinates":[[[-159.375,73.75],[-164.375,73.75],[-164.375,75.0],[-165.625,75.0],[-165.625,76.25],[-168.125,76.25],[-168.125,75.0],[-169.375,75.0],[-169.375,80.0],[-126.875,80.0],[-126.875,82.5],[-114.375,82.5],[-114.375,86.25],[-80.625,86.25],[-80.625,83.75],[-84.375,83.75],[-84.375,82.5],[-95.625,82.5],[-95.625,81.25],[-101.875,81.25],[-101.875,80.0],[-108.125,80.0],[-108.125,78.75],[-116.875,78.75],[-116.875,77.5],[-123.125,77.5],[-123.125,76.25],[-129.375,76.25],[-129.375,71.25],[-156.875,71.25],[-156.875,72.5],[-159.375,72.5],[-159.375,73.75]]]}},{"type":"Feature","properties":{"code":"GIS","name_draft":"East Greenland (GIS)","name_2026b":"GIS_GreenlandSea","ice_sheet":"Greenland Ice Sheet","approximate":false,"n_cells":64,"source":"HadCM3 dye input cells (dye_regions_norm.nc), Endres et al. 2026b"},"geometry":{"type":"Polygon","coordinates":[[[-34.375,62.5],[-39.375,62.5],[-39.375,66.25],[-31.875,66.25],[-31.875,68.75],[-20.625,68.75],[-20.625,73.75],[-16.875,73.75],[-16.875,80.0],[-14.375,80.0],[-14.375,72.5],[-18.125,72.5],[-18.125,68.75],[-19.375,68.75],[-19.375,67.5],[-21.875,67.5],[-21.875,66.25],[-24.375,66.25],[-24.375,65.0],[-28.125,65.0],[-28.125,63.75],[-34.375,63.75],[-34.375,62.5]]]}},{"type":"Feature","properties":{"code":"NLau","name_draft":"Labrador Sea, N. Laurentide (NLau)","name_2026b":"LAU_LabradorSea","ice_sheet":"Laurentide Ice Sheet","approximate":false,"n_cells":170,"source":"HadCM3 dye input cells (dye_regions_norm.nc), Endres et al. 2026b"},"geometry":{"type":"Polygon","coordinates":[[[-73.125,71.25],[-73.125,73.75],[-80.625,73.75],[-80.625,76.25],[-76.875,76.25],[-76.875,78.75],[-73.125,78.75],[-73.125,76.25],[-65.625,76.25],[-65.625,73.75],[-58.125,73.75],[-58.125,71.25],[-54.375,71.25],[-54.375,63.75],[-50.625,63.75],[-50.625,61.25],[-48.125,61.25],[-48.125,58.75],[-49.375,58.75],[-49.375,53.75],[-58.125,53.75],[-58.125,56.25],[-61.875,56.25],[-61.875,68.75],[-65.625,68.75],[-65.625,71.25],[-73.125,71.25]]]}},{"type":"Feature","properties":{"code":"SLau","name_draft":"St. Lawrence / NW Atlantic, S. Laurentide (SLau)","name_2026b":"LAU_StLawrence","ice_sheet":"Laurentide Ice Sheet","approximate":false,"n_cells":103,"source":"HadCM3 dye input cells (dye_regions_norm.nc), Endres et al. 2026b"},"geometry":{"type":"MultiPolygon","coordinates":[[[[-70.625,28.75],[-79.375,28.75],[-79.375,31.25],[-76.875,31.25],[-76.875,35.0],[-75.625,35.0],[-75.625,36.25],[-73.125,36.25],[-73.125,40.0],[-70.625,40.0],[-70.625,28.75]]],[[[-69.375,32.5],[-69.375,40.0],[-68.125,40.0],[-68.125,41.25],[-65.625,41.25],[-65.625,42.5],[-64.375,42.5],[-64.375,43.75],[-54.375,43.75],[-54.375,45.0],[-53.125,45.0],[-53.125,40.0],[-55.625,40.0],[-55.625,38.75],[-58.125,38.75],[-58.125,37.5],[-65.625,37.5],[-65.625,32.5],[-69.375,32.5]]]]}},{"type":"Feature","properties":{"code":"GulofMex","name_draft":"Gulf of Mexico (GoM)","name_2026b":"LAU_GulfOfMexico","ice_sheet":"Laurentide Ice Sheet","approximate":false,"n_cells":67,"source":"HadCM3 dye input cells (dye_regions_norm.nc), Endres et al. 2026b"},"geometry":{"type":"Polygon","coordinates":[[[-95.625,18.75],[-95.625,27.5],[-90.625,27.5],[-90.625,28.75],[-85.625,28.75],[-85.625,27.5],[-84.375,27.5],[-84.375,25.0],[-83.125,25.0],[-83.125,22.5],[-81.875,22.5],[-81.875,18.75],[-83.125,18.75],[-83.125,17.5],[-88.125,17.5],[-88.125,21.25],[-86.875,21.25],[-86.875,22.5],[-88.125,22.5],[-88.125,23.75],[-89.375,23.75],[-89.375,22.5],[-90.625,22.5],[-90.625,21.25],[-93.125,21.25],[-93.125,18.75],[-95.625,18.75]]]}}]}