{
 "type": "FeatureCollection",
 "metadata": {
  "description": "Approximate outlines of the nine dye-tracer meltwater input regions, hand-digitised from Endres et al. (2026b, Fig. 2a) and Endres et al. (in prep., Fig. 5.1) with drainage descriptions from Endres et al. (2026b, Tables 1-2). Not the HadCM3 model masks; replace with the masks when available.",
  "sites": [
   {
    "name": "NISA (La Vallina cave, Glas)",
    "lon": -4.8067,
    "lat": 43.41,
    "source": "data/site.csv"
   },
   {
    "name": "PS2644-5",
    "lon": -21.7667,
    "lat": 67.8667,
    "source": "Endres et al. (2026b), site table: 67°52'N, 21°46'W"
   }
  ]
 },
 "features": [
  {
   "type": "Feature",
   "properties": {
    "code": "Med",
    "name_draft": "Mediterranean (Med)",
    "name_2026b": "EIS_MedSea",
    "ice_sheet": "European Ice Sheet Complex",
    "drainage": "Drainage to the Mediterranean Sea (Rhône, Po, Ebro; episodic Black Sea input)",
    "approximate": true
   },
   "geometry": {
    "type": "Polygon",
    "coordinates": [
     [
      [
       -1,
       36.5
      ],
      [
       4,
       38.5
      ],
      [
       8,
       39
      ],
      [
       12,
       38
      ],
      [
       15,
       37.5
      ],
      [
       18,
       38
      ],
      [
       23,
       36.5
      ],
      [
       28,
       37
      ],
      [
       28,
       40.8
      ],
      [
       26,
       41
      ],
      [
       23,
       40.5
      ],
      [
       20,
       40
      ],
      [
       19,
       42
      ],
      [
       14,
       45.5
      ],
      [
       12.5,
       45.8
      ],
      [
       10,
       44.5
      ],
      [
       7,
       44
      ],
      [
       3,
       43.5
      ],
      [
       -0.5,
       39
      ],
      [
       -1,
       36.5
      ]
     ]
    ]
   }
  },
  {
   "type": "Feature",
   "properties": {
    "code": "Bri",
    "name_draft": "British Isles (Bri)",
    "name_2026b": "EIS_BayOfBiscay",
    "ice_sheet": "European Ice Sheet Complex (British–Irish, Fennoscandian)",
    "drainage": "Drainage to the Northeast Atlantic: Bay of Biscay and western British margin, incl. Fleuve Manche",
    "approximate": true
   },
   "geometry": {
    "type": "Polygon",
    "coordinates": [
     [
      [
       -6,
       60
      ],
      [
       -8,
       58.5
      ],
      [
       -9,
       56
      ],
      [
       -11,
       54
      ],
      [
       -11,
       51
      ],
      [
       -6,
       48
      ],
      [
       -8,
       47
      ],
      [
       -9.5,
       44.5
      ],
      [
       -8,
       43.7
      ],
      [
       -4,
       43.6
      ],
      [
       -1.5,
       44
      ],
      [
       -1.5,
       46.5
      ],
      [
       -1.5,
       48.5
      ],
      [
       1,
       50.5
      ],
      [
       -2,
       50.5
      ],
      [
       -4.5,
       51.7
      ],
      [
       -5.5,
       54
      ],
      [
       -6,
       56
      ],
      [
       -4,
       58
      ],
      [
       -1,
       59.5
      ],
      [
       -4,
       60
      ],
      [
       -6,
       60
      ]
     ]
    ]
   }
  },
  {
   "type": "Feature",
   "properties": {
    "code": "Fen",
    "name_draft": "Fennoscandian (Fen)",
    "name_2026b": "EIS_NorwegianSea",
    "ice_sheet": "European Ice Sheet Complex (Fennoscandian, Barents)",
    "drainage": "Drainage to the Norwegian Sea via marine-terminating Fennoscandian margins and ice streams",
    "approximate": true
   },
   "geometry": {
    "type": "Polygon",
    "coordinates": [
     [
      [
       4.5,
       58.5
      ],
      [
       7,
       58
      ],
      [
       6,
       60
      ],
      [
       5.5,
       62
      ],
      [
       8,
       63.5
      ],
      [
       11,
       65
      ],
      [
       13,
       67
      ],
      [
       16,
       69
      ],
      [
       19,
       70
      ],
      [
       24,
       71
      ],
      [
       28,
       71.5
      ],
      [
       28,
       73
      ],
      [
       20,
       72.5
      ],
      [
       14,
       70.5
      ],
      [
       10,
       68.5
      ],
      [
       7,
       66
      ],
      [
       3,
       63.5
      ],
      [
       1.5,
       61
      ],
      [
       2,
       59
      ],
      [
       4.5,
       58.5
      ]
     ]
    ]
   }
  },
  {
   "type": "Feature",
   "properties": {
    "code": "EurArc",
    "name_draft": "Eurasian Arctic (EurArc)",
    "name_2026b": "EIS_Arctic",
    "ice_sheet": "European Ice Sheet Complex (Svalbard–Barents–Kara)",
    "drainage": "Discharge to the Barents and Kara Sea shelves",
    "approximate": true
   },
   "geometry": {
    "type": "Polygon",
    "coordinates": [
     [
      [
       40,
       68
      ],
      [
       44,
       68.5
      ],
      [
       50,
       68.8
      ],
      [
       58,
       69.5
      ],
      [
       66,
       69
      ],
      [
       72,
       71
      ],
      [
       80,
       73
      ],
      [
       80,
       76.5
      ],
      [
       70,
       76
      ],
      [
       60,
       76
      ],
      [
       55,
       74
      ],
      [
       45,
       72
      ],
      [
       35,
       72.5
      ],
      [
       28,
       72
      ],
      [
       30,
       70.5
      ],
      [
       40,
       68
      ]
     ]
    ]
   }
  },
  {
   "type": "Feature",
   "properties": {
    "code": "AmeArc",
    "name_draft": "American Arctic (AmeArc)",
    "name_2026b": "LAU_Arctic",
    "ice_sheet": "Laurentide Ice Sheet",
    "drainage": "Drainage to the Beaufort Sea via the Mackenzie River and the NW Laurentide margin",
    "approximate": true
   },
   "geometry": {
    "type": "Polygon",
    "coordinates": [
     [
      [
       -135,
       69
      ],
      [
       -129,
       70
      ],
      [
       -122,
       69.8
      ],
      [
       -115,
       68.8
      ],
      [
       -110,
       68.3
      ],
      [
       -110,
       71
      ],
      [
       -118,
       72.5
      ],
      [
       -125,
       72
      ],
      [
       -133,
       71.2
      ],
      [
       -141,
       71.3
      ],
      [
       -141,
       69.6
      ],
      [
       -135,
       69
      ]
     ]
    ]
   }
  },
  {
   "type": "Feature",
   "properties": {
    "code": "GIS",
    "name_draft": "East Greenland (GIS)",
    "name_2026b": "GIS_GreenlandSea",
    "ice_sheet": "Greenland Ice Sheet",
    "drainage": "Local discharge to the Nordic Seas (Greenland Sea, Denmark Strait)",
    "approximate": true
   },
   "geometry": {
    "type": "Polygon",
    "coordinates": [
     [
      [
       -40,
       59.8
      ],
      [
       -36,
       62.5
      ],
      [
       -30,
       65.5
      ],
      [
       -23,
       67.5
      ],
      [
       -19,
       70
      ],
      [
       -17,
       73
      ],
      [
       -20,
       73
      ],
      [
       -22,
       70.5
      ],
      [
       -26,
       68.5
      ],
      [
       -33,
       67.5
      ],
      [
       -38,
       64
      ],
      [
       -42,
       60.5
      ],
      [
       -40,
       59.8
      ]
     ]
    ]
   }
  },
  {
   "type": "Feature",
   "properties": {
    "code": "NLau",
    "name_draft": "Labrador Sea, N. Laurentide (NLau)",
    "name_2026b": "LAU_LabradorSea",
    "ice_sheet": "Laurentide Ice Sheet",
    "drainage": "Drainage to Baffin Bay, Davis Strait and the Labrador Sea, incl. Hudson Bay outlets",
    "approximate": true
   },
   "geometry": {
    "type": "Polygon",
    "coordinates": [
     [
      [
       -78,
       72
      ],
      [
       -70,
       70
      ],
      [
       -64,
       67
      ],
      [
       -62,
       63
      ],
      [
       -60,
       59
      ],
      [
       -56,
       55
      ],
      [
       -55.5,
       52
      ],
      [
       -52,
       52
      ],
      [
       -54,
       56
      ],
      [
       -57,
       60
      ],
      [
       -58,
       64
      ],
      [
       -60,
       67
      ],
      [
       -66,
       70.5
      ],
      [
       -72,
       73.5
      ],
      [
       -78,
       72
      ]
     ]
    ]
   }
  },
  {
   "type": "Feature",
   "properties": {
    "code": "SLau",
    "name_draft": "St. Lawrence / NW Atlantic, S. Laurentide (SLau)",
    "name_2026b": "LAU_StLawrence",
    "ice_sheet": "Laurentide Ice Sheet",
    "drainage": "Drainage to the Northwest Atlantic via the St. Lawrence, Hudson and Susquehanna rivers",
    "approximate": true
   },
   "geometry": {
    "type": "Polygon",
    "coordinates": [
     [
      [
       -78,
       29.5
      ],
      [
       -74,
       32
      ],
      [
       -70,
       36
      ],
      [
       -65,
       39.5
      ],
      [
       -60,
       42
      ],
      [
       -58,
       44
      ],
      [
       -61,
       45.5
      ],
      [
       -64,
       46.5
      ],
      [
       -66,
       44.5
      ],
      [
       -70,
       41.5
      ],
      [
       -74,
       40.3
      ],
      [
       -76,
       37
      ],
      [
       -79,
       35
      ],
      [
       -81,
       31
      ],
      [
       -78,
       29.5
      ]
     ]
    ]
   }
  },
  {
   "type": "Feature",
   "properties": {
    "code": "GulofMex",
    "name_draft": "Gulf of Mexico (GoM)",
    "name_2026b": "LAU_GulfOfMexico",
    "ice_sheet": "Laurentide Ice Sheet",
    "drainage": "Drainage to the Gulf of Mexico via the Mississippi and Rio Grande",
    "approximate": true
   },
   "geometry": {
    "type": "Polygon",
    "coordinates": [
     [
      [
       -98,
       22.5
      ],
      [
       -97,
       22
      ],
      [
       -96,
       25
      ],
      [
       -94,
       27.5
      ],
      [
       -90,
       27.5
      ],
      [
       -87,
       28
      ],
      [
       -84,
       27
      ],
      [
       -83,
       29
      ],
      [
       -85,
       29.7
      ],
      [
       -88,
       30.3
      ],
      [
       -90,
       29.2
      ],
      [
       -94,
       29.6
      ],
      [
       -97,
       28
      ],
      [
       -97.5,
       26
      ],
      [
       -98,
       22.5
      ]
     ]
    ]
   }
  }
 ]
}